{"type": "FeatureCollection", "features": [{"type": "Feature", "properties": {"norad_id": 28054, "name": "DMSP 5D-3 F16 (USA 172)", "group": "weather", "lat": 70.83470510616193, "lon": -159.02543327780205, "alt_km": 839.5108172123437, "timestamp": "2025-12-02T10:50:46.914987+00:00", "meta": {"OBJECT_NAME": "DMSP 5D-3 F16 (USA 172)", "OBJECT_ID": "2003-048A", "EPOCH": "2025-12-02T03:57:48.176352", "MEAN_MOTION": 14.14418018, "ECCENTRICITY": 0.0006944, "INCLINATION": 99.0054, "RA_OF_ASC_NODE": 353.5386, "ARG_OF_PERICENTER": 352.9295, "MEAN_ANOMALY": 94.4518, "EPHEMERIS_TYPE": 0, "CLASSIFICATION_TYPE": "U", "NORAD_CAT_ID": 28054, "ELEMENT_SET_NO": 999, "REV_AT_EPOCH": 14163, "BSTAR": 0.00011684, "MEAN_MOTION_DOT": 1.78e-06, "MEAN_MOTION_DDOT": 0}, "tle": {"line1": "1 28054U 03048A   25336.16514093  .00000178  00000+0  11684-3 0  9990", "line2": "2 28054  99.0054 353.5386 0006944 352.9295  94.4518 14.14418018141637"}}, "geometry": {"type": "Point", "coordinates": [-159.02543327780205, 70.83470510616193]}}, {"type": "Feature", "properties": {"norad_id": 28912, "name": "METEOSAT-9 (MSG-2)", "group": "weather", "lat": -6.174082429745683, "lon": -80.48136381892213, "alt_km": 35774.0653380072, "timestamp": "2025-12-02T10:50:46.915054+00:00", "meta": {"OBJECT_NAME": "METEOSAT-9 (MSG-2)", "OBJECT_ID": "2005-049B", "EPOCH": "2025-12-01T20:52:41.183040", "MEAN_MOTION": 1.0027085, "ECCENTRICITY": 0.0003963, "INCLINATION": 8.9132, "RA_OF_ASC_NODE": 56.0736, "ARG_OF_PERICENTER": 184.5981, "MEAN_ANOMALY": 189.0848, "EPHEMERIS_TYPE": 0, "CLASSIFICATION_TYPE": "U", "NORAD_CAT_ID": 28912, "ELEMENT_SET_NO": 999, "REV_AT_EPOCH": 502, "BSTAR": 0, "MEAN_MOTION_DOT": 1.42e-06, "MEAN_MOTION_DDOT": 0}, "tle": {"line1": "1 28912U 05049B   25335.86992110  .00000142  00000+0  00000+0 0  9999", "line2": "2 28912   8.9132  56.0736 0003963 184.5981 189.0848  1.00270850  5029"}}, "geometry": {"type": "Point", "coordinates": [-80.48136381892213, -6.174082429745683]}}, {"type": "Feature", "properties": {"norad_id": 29522, "name": "DMSP 5D-3 F17 (USA 191)", "group": "weather", "lat": 28.803656361979062, "lon": -22.79661486604729, "alt_km": 845.6292013919074, "timestamp": "2025-12-02T10:50:46.915074+00:00", "meta": {"OBJECT_NAME": "DMSP 5D-3 F17 (USA 191)", "OBJECT_ID": "2006-050A", "EPOCH": "2025-12-02T03:55:12.451584", "MEAN_MOTION": 14.14912102, "ECCENTRICITY": 0.0009136, "INCLINATION": 98.7395, "RA_OF_ASC_NODE": 341.7726, "ARG_OF_PERICENTER": 257.9625, "MEAN_ANOMALY": 102.0525, "EPHEMERIS_TYPE": 0, "CLASSIFICATION_TYPE": "U", "NORAD_CAT_ID": 29522, "ELEMENT_SET_NO": 999, "REV_AT_EPOCH": 98455, "BSTAR": 0.00013665, "MEAN_MOTION_DOT": 2.21e-06, "MEAN_MOTION_DDOT": 0}, "tle": {"line1": "1 29522U 06050A   25336.16333856  .00000221  00000+0  13665-3 0  9993", "line2": "2 29522  98.7395 341.7726 0009136 257.9625 102.0525 14.14912102984559"}}, "geometry": {"type": "Point", "coordinates": [-22.79661486604729, 28.803656361979062]}}, {"type": "Feature", "properties": {"norad_id": 32958, "name": "FENGYUN 3A", "group": "weather", "lat": -65.35416821501344, "lon": -64.38354048276307, "alt_km": 830.218869288713, "timestamp": "2025-12-02T10:50:46.915090+00:00", "meta": {"OBJECT_NAME": "FENGYUN 3A", "OBJECT_ID": "2008-026A", "EPOCH": "2025-12-02T02:42:06.850656", "MEAN_MOTION": 14.19508922, "ECCENTRICITY": 0.0008417, "INCLINATION": 98.6682, "RA_OF_ASC_NODE": 275.864, "ARG_OF_PERICENTER": 343.0691, "MEAN_ANOMALY": 17.0203, "EPHEMERIS_TYPE": 0, "CLASSIFICATION_TYPE": "U", "NORAD_CAT_ID": 32958, "ELEMENT_SET_NO": 999, "REV_AT_EPOCH": 90744, "BSTAR": 8.5569e-05, "MEAN_MOTION_DOT": 1.37e-06, "MEAN_MOTION_DDOT": 0}, "tle": {"line1": "1 32958U 08026A   25336.11257929  .00000137  00000+0  85569-4 0  9995", "line2": "2 32958  98.6682 275.8640 0008417 343.0691  17.0203 14.19508922907444"}}, "geometry": {"type": "Point", "coordinates": [-64.38354048276307, -65.35416821501344]}}, {"type": "Feature", "properties": {"norad_id": 35491, "name": "GOES 14", "group": "weather", "lat": 0.7604749171951463, "lon": 125.83198785071599, "alt_km": 35791.43660958593, "timestamp": "2025-12-02T10:50:46.915107+00:00", "meta": {"OBJECT_NAME": "GOES 14", "OBJECT_ID": "2009-033A", "EPOCH": "2025-12-02T02:59:47.491008", "MEAN_MOTION": 1.00272662, "ECCENTRICITY": 0.000414, "INCLINATION": 1.1693, "RA_OF_ASC_NODE": 85.5322, "ARG_OF_PERICENTER": 149.1671, "MEAN_ANOMALY": 133.1394, "EPHEMERIS_TYPE": 0, "CLASSIFICATION_TYPE": "U", "NORAD_CAT_ID": 35491, "ELEMENT_SET_NO": 999, "REV_AT_EPOCH": 461, "BSTAR": 0, "MEAN_MOTION_DOT": -4.7e-07, "MEAN_MOTION_DDOT": 0}, "tle": {"line1": "1 35491U 09033A   25336.12485522 -.00000047  00000+0  00000+0 0  9995", "line2": "2 35491   1.1693  85.5322 0004140 149.1671 133.1394  1.00272662  4618"}}, "geometry": {"type": "Point", "coordinates": [125.83198785071599, 0.7604749171951463]}}, {"type": "Feature", "properties": {"norad_id": 35951, "name": "DMSP 5D-3 F18 (USA 210)", "group": "weather", "lat": -78.13811998762472, "lon": 84.78727940876544, "alt_km": 859.1125578735873, "timestamp": "2025-12-02T10:50:46.915121+00:00", "meta": {"OBJECT_NAME": "DMSP 5D-3 F18 (USA 210)", "OBJECT_ID": "2009-057A", "EPOCH": "2025-12-02T04:31:11.534016", "MEAN_MOTION": 14.14759126, "ECCENTRICITY": 0.0012104, "INCLINATION": 98.8822, "RA_OF_ASC_NODE": 312.6425, "ARG_OF_PERICENTER": 90.1662, "MEAN_ANOMALY": 270.0898, "EPHEMERIS_TYPE": 0, "CLASSIFICATION_TYPE": "U", "NORAD_CAT_ID": 35951, "ELEMENT_SET_NO": 999, "REV_AT_EPOCH": 83173, "BSTAR": 0.00017967, "MEAN_MOTION_DOT": 3.02e-06, "MEAN_MOTION_DDOT": 0}, "tle": {"line1": "1 35951U 09057A   25336.18832794  .00000302  00000+0  17967-3 0  9992", "line2": "2 35951  98.8822 312.6425 0012104  90.1662 270.0898 14.14759126831733"}}, "geometry": {"type": "Point", "coordinates": [84.78727940876544, -78.13811998762472]}}, {"type": "Feature", "properties": {"norad_id": 36411, "name": "EWS-G2 (GOES 15)", "group": "weather", "lat": -0.39722710015337376, "lon": -64.21928381256416, "alt_km": 35768.276160833426, "timestamp": "2025-12-02T10:50:46.915136+00:00", "meta": {"OBJECT_NAME": "EWS-G2 (GOES 15)", "OBJECT_ID": "2010-008A", "EPOCH": "2025-12-02T03:48:18.110016", "MEAN_MOTION": 1.00267539, "ECCENTRICITY": 0.0005903, "INCLINATION": 0.7853, "RA_OF_ASC_NODE": 86.0559, "ARG_OF_PERICENTER": 169.3361, "MEAN_ANOMALY": 294.4691, "EPHEMERIS_TYPE": 0, "CLASSIFICATION_TYPE": "U", "NORAD_CAT_ID": 36411, "ELEMENT_SET_NO": 999, "REV_AT_EPOCH": 5766, "BSTAR": 0, "MEAN_MOTION_DOT": 5.8e-07, "MEAN_MOTION_DDOT": 0}, "tle": {"line1": "1 36411U 10008A   25336.15854294  .00000058  00000+0  00000+0 0  9992", "line2": "2 36411   0.7853  86.0559 0005903 169.3361 294.4691  1.00267539 57661"}}, "geometry": {"type": "Point", "coordinates": [-64.21928381256416, -0.39722710015337376]}}, {"type": "Feature", "properties": {"norad_id": 36744, "name": "COMS 1", "group": "weather", "lat": -4.164387998829037, "lon": 2.452082731148776, "alt_km": 35788.34792126979, "timestamp": "2025-12-02T10:50:46.915151+00:00", "meta": {"OBJECT_NAME": "COMS 1", "OBJECT_ID": "2010-032A", "EPOCH": "2025-12-01T12:42:46.444608", "MEAN_MOTION": 1.00270535, "ECCENTRICITY": 0.00010192, "INCLINATION": 4.3122, "RA_OF_ASC_NODE": 78.1218, "ARG_OF_PERICENTER": 177.7332, "MEAN_ANOMALY": 133.6625, "EPHEMERIS_TYPE": 0, "CLASSIFICATION_TYPE": "U", "NORAD_CAT_ID": 36744, "ELEMENT_SET_NO": 999, "REV_AT_EPOCH": 4910, "BSTAR": 0, "MEAN_MOTION_DOT": -3.23e-06, "MEAN_MOTION_DDOT": 0}, "tle": {"line1": "1 36744U 10032A   25335.52970422 -.00000323  00000+0  00000+0 0  9996", "line2": "2 36744   4.3122  78.1218 0001019 177.7332 133.6625  1.00270535 49109"}}, "geometry": {"type": "Point", "coordinates": [2.452082731148776, -4.164387998829037]}}, {"type": "Feature", "properties": {"norad_id": 37214, "name": "FENGYUN 3B", "group": "weather", "lat": -44.97370047849502, "lon": -172.7457906776584, "alt_km": 865.0786839537723, "timestamp": "2025-12-02T10:50:46.915165+00:00", "meta": {"OBJECT_NAME": "FENGYUN 3B", "OBJECT_ID": "2010-059A", "EPOCH": "2025-12-02T05:06:06.740064", "MEAN_MOTION": 14.1478499, "ECCENTRICITY": 0.0022492, "INCLINATION": 98.9923, "RA_OF_ASC_NODE": 16.1157, "ARG_OF_PERICENTER": 27.4147, "MEAN_ANOMALY": 59.8668, "EPHEMERIS_TYPE": 0, "CLASSIFICATION_TYPE": "U", "NORAD_CAT_ID": 37214, "ELEMENT_SET_NO": 999, "REV_AT_EPOCH": 77957, "BSTAR": 8.4977e-05, "MEAN_MOTION_DOT": 1.19e-06, "MEAN_MOTION_DDOT": 0}, "tle": {"line1": "1 37214U 10059A   25336.21257801  .00000119  00000+0  84977-4 0  9996", "line2": "2 37214  98.9923  16.1157 0022492  27.4147  59.8668 14.14784990779578"}}, "geometry": {"type": "Point", "coordinates": [-172.7457906776584, -44.97370047849502]}}, {"type": "Feature", "properties": {"norad_id": 37849, "name": "SUOMI NPP", "group": "weather", "lat": -70.02397932373101, "lon": 68.73857000708928, "alt_km": 834.8000712001949, "timestamp": "2025-12-02T10:50:46.915177+00:00", "meta": {"OBJECT_NAME": "SUOMI NPP", "OBJECT_ID": "2011-061A", "EPOCH": "2025-12-02T02:53:47.215104", "MEAN_MOTION": 14.19509173, "ECCENTRICITY": 0.000185, "INCLINATION": 98.7757, "RA_OF_ASC_NODE": 273.5587, "ARG_OF_PERICENTER": 139.1573, "MEAN_ANOMALY": 220.9742, "EPHEMERIS_TYPE": 0, "CLASSIFICATION_TYPE": "U", "NORAD_CAT_ID": 37849, "ELEMENT_SET_NO": 999, "REV_AT_EPOCH": 73048, "BSTAR": 7.3827e-05, "MEAN_MOTION_DOT": 1.11e-06, "MEAN_MOTION_DDOT": 0}, "tle": {"line1": "1 37849U 11061A   25336.12068536  .00000111  00000+0  73827-4 0  9993", "line2": "2 37849  98.7757 273.5587 0001850 139.1573 220.9742 14.19509173730484"}}, "geometry": {"type": "Point", "coordinates": [68.73857000708928, -70.02397932373101]}}]}